[{"OBJECT_NAME":"STARLINK-33743","OBJECT_ID":"2025-069H","EPOCH":"2026-03-09T10:23:22.279200","MEAN_MOTION":15.30179898,"ECCENTRICITY":0.00011326,"INCLINATION":53.1579,"RA_OF_ASC_NODE":143.7974,"ARG_OF_PERICENTER":70.0219,"MEAN_ANOMALY":290.0903,"EPHEMERIS_TYPE":0,"CLASSIFICATION_TYPE":"U","NORAD_CAT_ID":63440,"ELEMENT_SET_NO":999,"REV_AT_EPOCH":5325,"BSTAR":0.00039775138,"MEAN_MOTION_DOT":0.00011432,"MEAN_MOTION_DDOT":0},{"OBJECT_NAME":"CZ-4B DEB","OBJECT_ID":"2004-035N","EPOCH":"2026-03-08T07:19:22.074240","MEAN_MOTION":15.17712882,"ECCENTRICITY":0.00700404,"INCLINATION":97.867,"RA_OF_ASC_NODE":11.9774,"ARG_OF_PERICENTER":119.6038,"MEAN_ANOMALY":241.2197,"EPHEMERIS_TYPE":0,"CLASSIFICATION_TYPE":"U","NORAD_CAT_ID":35270,"ELEMENT_SET_NO":999,"REV_AT_EPOCH":13623,"BSTAR":0.0033008842,"MEAN_MOTION_DOT":0.00071474,"MEAN_MOTION_DDOT":0}]
